[Satellite]
VERSION=1.1
NAME=CZ-6A DEB
NICKNAME=CZ-6A DEB
TLE1=1 54348U 22151CT  22342.01544163  .00000885  00000+0  33304-3 0  9998
TLE2=2 54348  98.6940 346.6585 0107544 235.5938 123.5041 14.30903909  3169
STATUS=0
